[{"OBJECT_NAME":"FLOCK 4G-5","OBJECT_ID":"2025-009BG","EPOCH":"2026-03-09T10:57:11.608704","MEAN_MOTION":15.28679529,"ECCENTRICITY":0.00020946,"INCLINATION":97.4058,"RA_OF_ASC_NODE":151.2478,"ARG_OF_PERICENTER":314.5072,"MEAN_ANOMALY":45.5996,"EPHEMERIS_TYPE":0,"CLASSIFICATION_TYPE":"U","NORAD_CAT_ID":62663,"ELEMENT_SET_NO":999,"REV_AT_EPOCH":6369,"BSTAR":0.00040688068,"MEAN_MOTION_DOT":0.00011278,"MEAN_MOTION_DDOT":0},{"OBJECT_NAME":"STARLINK-36488","OBJECT_ID":"2026-002B","EPOCH":"2026-03-09T09:57:58.025952","MEAN_MOTION":15.27575874,"ECCENTRICITY":4.33e-5,"INCLINATION":43.0006,"RA_OF_ASC_NODE":327.1045,"ARG_OF_PERICENTER":359.2069,"MEAN_ANOMALY":0.8782,"EPHEMERIS_TYPE":0,"CLASSIFICATION_TYPE":"U","NORAD_CAT_ID":67306,"ELEMENT_SET_NO":999,"REV_AT_EPOCH":1103,"BSTAR":0.0013290569,"MEAN_MOTION_DOT":0.00036487,"MEAN_MOTION_DDOT":0}]
